[{"OBJECT_NAME":"FLOCK 4G-25","OBJECT_ID":"2025-009AP","EPOCH":"2026-03-09T17:53:50.680608","MEAN_MOTION":15.27424196,"ECCENTRICITY":8.276e-5,"INCLINATION":97.4049,"RA_OF_ASC_NODE":151.4141,"ARG_OF_PERICENTER":316.3151,"MEAN_ANOMALY":43.8023,"EPHEMERIS_TYPE":0,"CLASSIFICATION_TYPE":"U","NORAD_CAT_ID":62646,"ELEMENT_SET_NO":999,"REV_AT_EPOCH":6373,"BSTAR":0.00038902475,"MEAN_MOTION_DOT":0.00010373,"MEAN_MOTION_DDOT":0},{"OBJECT_NAME":"ALSAT-3A","OBJECT_ID":"2026-009A","EPOCH":"2026-03-09T22:30:09.645696","MEAN_MOTION":15.23911932,"ECCENTRICITY":0.00134314,"INCLINATION":97.4617,"RA_OF_ASC_NODE":143.4537,"ARG_OF_PERICENTER":76.5175,"MEAN_ANOMALY":283.7557,"EPHEMERIS_TYPE":0,"CLASSIFICATION_TYPE":"U","NORAD_CAT_ID":67474,"ELEMENT_SET_NO":999,"REV_AT_EPOCH":816,"BSTAR":0.00035948927,"MEAN_MOTION_DOT":8.636e-5,"MEAN_MOTION_DDOT":0}]
